COSMOS 2084             
1 20663U 90055A   26164.87455977  .00002045  00000+0  15291-3 0  9998
2 20663  62.7910   7.3977 0005513 273.4379  86.6091 15.06103747950802
SL-6 R/B(2)             
1 20666U 90055D   26164.72494545  .00001539  00000+0  12370-3 0  9991
2 20666  62.7824 287.1581 0040064   4.6309 355.5153 15.03993046952631
SL-8 R/B                
1 20775U 90078B   26164.70829700  .00019398  00000+0  54632-3 0  9999
2 20775  82.9003 164.7880 0351715  50.1979 312.9645 14.92184562823603
SL-8 R/B                
1 21088U 91006B   26164.86757713  .00000028  00000+0  12758-4 0  9994
2 21088  82.9424  98.5032 0023545 123.3884 299.0111 13.77505600777317
OKEAN-3                 
1 21397U 91039A   26164.74850251  .00002391  00000+0  16486-3 0  9997
2 21397  82.5158 243.7154 0014367  10.8186 349.3347 15.05308913879488
COSMOS 2151             
1 21422U 91042A   26164.79195759  .00001685  00000+0  13169-3 0  9990
2 21422  82.4960 350.9579 0013825  94.1505 266.1300 15.00429295877606
SL-14 R/B               
1 21423U 91042B   26164.84432992  .00000343  00000+0  40377-4 0  9992
2 21423  82.4925 130.0304 0015487 286.9696  72.9820 14.81900606867314
ERS-1                   
1 21574U 91050A   26164.68943493  .00000341  00000+0  12368-3 0  9999
2 21574  98.7797 185.3019 0030705 277.8245  81.9457 14.39515955829544
ARIANE 40 R/B           
1 21610U 91050F   26164.72057457  .00000264  00000+0  91359-4 0  9993
2 21610  98.1877 213.2724 0004119 128.7489 231.4071 14.42955209832841
INTERCOSMOS 25          
1 21819U 91086A   26164.48024275  .00000555  00000+0  11075-3 0  9997
2 21819  82.6052 252.0532 1484152 270.3971  72.7791 12.12191203508298
SL-8 R/B                
1 21876U 92008B   26164.87634006  .00000144  00000+0  13287-3 0  9998
2 21876  82.9264 196.2493 0033641 224.1876 309.5510 13.75976063722649
SL-8 R/B                
1 21938U 92020B   26164.85416874  .00000048  00000+0  33705-4 0  9991
2 21938  82.9306  82.3329 0029932  31.6551  32.6053 13.75548487714357
USA 81                  
1 21949U 92023A   26164.85189275  .00000155  00000+0  50001-4 0  9995
2 21949  85.0077  75.9324 0002772  87.6389 272.5121 14.32397417108553
